GOES 7                  
1 17561U 87022A   02088.41517700  .00000082  00000-0  10000-3 0  3989
2 17561   6.9899  57.3519 0009501 277.6684 191.3500  1.00243579 38470
